GLOBALSTAR M001 [-]     
1 25162U 98008A   23252.50270924 -.00000041  00000+0  42516-3 0  9990
2 25162  52.0040  55.3734 0001451   5.7278  28.8103 12.38167204163608
GLOBALSTAR M004 [-]     
1 25163U 98008B   23252.32672157 -.00000081  00000+0  12446-3 0  9998
2 25163  51.9972 227.4801 0002904 298.6197 204.2245 12.63337302179920
GLOBALSTAR M002 [-]     
1 25164U 98008C   23252.61234701 -.00000075  00000+0  33223-4 0  9990
2 25164  52.0023  61.3585 0002039  56.7384 303.3631 11.61495054108933
GLOBALSTAR M003 [-]     
1 25165U 98008D   23252.50571601  .00000024  00000+0  12124-2 0  9990
2 25165  51.9724 159.7163 0008333  71.5807  99.5257 12.11935440154801
GLOBALSTAR M014 [-]     
1 25306U 98023A   23252.61787414 -.00000077  00000+0  11082-4 0  9990
2 25306  51.9877 358.1614 0000489 205.0128 167.7768 11.65459090115786
GLOBALSTAR M006 [-]     
1 25307U 98023B   23252.61600008 -.00000060  00000+0  31565-3 0  9993
2 25307  51.9968  26.4722 0003838  37.1514  47.3183 11.58153516141911
GLOBALSTAR M015 [-]     
1 25308U 98023C   23252.27511162 -.00000071  00000+0  64316-4 0  9991
2 25308  51.9811  96.1561 0012846  10.0996 161.6041 11.48849194119727
GLOBALSTAR M008 [-]     
1 25309U 98023D   23252.57868855 -.00000032  00000+0  50376-3 0  9996
2 25309  51.9952 272.6683 0002374 249.4264 261.8740 12.36027227157882
